SL-8 R/B                
1 21088U 91006B   26071.31042272  .00000083  00000+0  67994-4 0  9991
2 21088  82.9465 168.0977 0022925  31.1742  22.6836 13.77494703764437
OKEAN-3                 
1 21397U 91039A   26071.20582760  .00004201  00000+0  29507-3 0  9992
2 21397  82.5197 334.4060 0013726 328.3821  31.6580 15.04827213865412
COSMOS 2151             
1 21422U 91042A   26071.28478393  .00002266  00000+0  17929-3 0  9993
2 21422  82.4930  81.1722 0013902  55.8998 304.3543 15.00115055863584
SL-14 R/B               
1 21423U 91042B   26070.91856584  .00000580  00000+0  70352-4 0  9992
2 21423  82.4929 218.0922 0015906 230.7794 129.2009 14.81832118853405
ERS-1                   
1 21574U 91050A   26071.06070590  .00000353  00000+0  12761-3 0  9997
2 21574  98.7879  89.3548 0031751 193.3487 166.6863 14.39451323816071
ARIANE 40 R/B           
1 21610U 91050F   26071.10601735  .00000315  00000+0  10671-3 0  9990
2 21610  98.2007 123.2517 0004245  75.8736 284.2926 14.42895392819345
INTERCOSMOS 25          
1 21819U 91086A   26071.13432388  .00001961  00000+0  37731-3 0  9993
2 21819  82.6045 308.5308 1486930 111.6672 264.9080 12.12007728496985
SL-8 R/B                
1 21876U 92008B   26071.28938990  .00000013  00000+0 -28895-5 0  9998
2 21876  82.9222 265.8439 0035644 126.2922  46.1592 13.75969807709776
SL-8 R/B                
1 21938U 92020B   26071.31133171  .00000066  00000+0  53130-4 0  9999
2 21938  82.9332 151.8153 0027624 291.1629 132.4204 13.75549842701492
USA 81                  
1 21949U 92023A   26071.24354049  .00000183  00000+0  60503-4 0  9997
2 21949  85.0080 129.9680 0002394  75.9061 284.2398 14.32368895 95154
COSMOS 2219             
1 22219U 92076A   26071.27978302  .00000061  00000+0  56674-4 0  9992
2 22219  71.0639  12.6533 0018845 203.5025 156.5238 14.14093345718748
SL-16 R/B               
1 22220U 92076B   26071.30972089 -.00000135  00000+0 -43230-4 0  9992
2 22220  71.0009 182.8551 0010475  91.5885 334.4302 14.16859250722203
COSMOS 2221             
1 22236U 92080A   26071.04496161  .00002155  00000+0  18855-3 0  9993
2 22236  82.5012 276.8245 0014248 179.0275 181.0977 14.96210282781148
SL-16 R/B               
1 22285U 92093B   26071.21295549 -.00000147  00000+0 -51046-4 0  9998
2 22285  71.0242 358.9692 0006382 291.0584  68.9856 14.15447267713517
COSMOS 2228             
1 22286U 92094A   26071.26025915  .00003223  00000+0  27577-3 0  9990
2 22286  82.5159 234.8488 0016695 295.4142  64.5352 14.97205399776445
SL-16 R/B               
1 22566U 93016B   26071.11227087  .00000002  00000+0  25548-4 0  9993
2 22566  71.0078 210.0926 0011996 310.9159  49.0924 14.15309273702518
COSMOS 2242             
1 22626U 93024A   26071.04294597  .00001734  00000+0  14986-3 0  9997
2 22626  82.5156 264.4650 0015060 300.3132  59.6600 14.96558951780743
